[{"OBJECT_NAME":"SUPERVIEW-1 03","OBJECT_ID":"2018-002A","EPOCH":"2026-03-09T22:14:33.880992","MEAN_MOTION":15.35916978,"ECCENTRICITY":0.00509393,"INCLINATION":97.3162,"RA_OF_ASC_NODE":154.1458,"ARG_OF_PERICENTER":177.0269,"MEAN_ANOMALY":183.1288,"EPHEMERIS_TYPE":0,"CLASSIFICATION_TYPE":"U","NORAD_CAT_ID":43099,"ELEMENT_SET_NO":999,"REV_AT_EPOCH":45311,"BSTAR":0.00062641306,"MEAN_MOTION_DOT":0.00022818,"MEAN_MOTION_DDOT":0},{"OBJECT_NAME":"STARLINK-31904","OBJECT_ID":"2024-084D","EPOCH":"2026-03-09T07:20:14.144928","MEAN_MOTION":15.27572673,"ECCENTRICITY":3.895e-5,"INCLINATION":43.0027,"RA_OF_ASC_NODE":44.0346,"ARG_OF_PERICENTER":294.2534,"MEAN_ANOMALY":65.8277,"EPHEMERIS_TYPE":0,"CLASSIFICATION_TYPE":"U","NORAD_CAT_ID":59657,"ELEMENT_SET_NO":999,"REV_AT_EPOCH":10431,"BSTAR":-6.933349e-5,"MEAN_MOTION_DOT":-2.169e-5,"MEAN_MOTION_DDOT":0}]
